id,shopName,shopAddress,lat,lng
1,肯德基崇明崇明餐厅,城桥镇八一路118号,31.625383944739,121.40239447246
2,肯德基崇明八一餐厅,城桥镇八一路488号,31.63205955813,121.40358333399
3,肯德基卢湾香港广场餐厅,淮海中路282号香港广场商场北座地下一层NBL04室,31.22973155762,121.48147227686
4,肯德基卢湾永新百货店餐厅,淮海中路887-909号永新百货(近茂名南路),31.223597378283,121.46769982868
5,肯德基卢湾柳林店餐厅,淮海中路1号(近西藏南路),31.230862128016,121.48658564292
6,肯德基卢湾五里桥店餐厅,打浦路603号农工商超市(近中山南一路),31.200999161379,121.48103499431
7,肯德基卢湾华狮店(暂停营业)餐厅,淮海中路688号华狮广场B1楼(近思南路),31.225860882703,121.47190436378
8,肯德基卢湾蒙自路店餐厅,卢湾区蒙自路25号,31.214533227377,121.48344157992
9,肯德基卢湾日月光广场店餐厅,卢湾区徐家汇路618号日月光中心广场B2楼,31.213349630525,121.47450853529
10,肯德基卢湾打浦桥餐厅,徐家汇路679号,31.211019868424,121.47483183544
11,肯德基卢湾瑞金餐厅,徐家汇路618号B2层商铺号B2-F-13,31.211794115937,121.47477733435
12,肯德基卢湾永业餐厅,蒙自路25号,31.214533227377,121.48344157992
13,肯德基南汇鸿音餐厅,南汇南芦公路1755号4-5幢,30.920696112408,121.8215474894
14,肯德基杨浦四平餐厅,四平路903号,31.281002544625,121.50781966909
15,肯德基杨浦淞沪餐厅,凇沪路8号7楼,31.249161710015,121.48789948569
16,肯德基杨浦淞沪路二店餐厅,淞沪路8号百联又一城B1楼(近邯郸路),31.30725462479,121.52246313765
17,肯德基杨浦延吉餐厅,靖宇东路270号,31.295005502365,121.54184848072
18,肯德基杨浦万达餐厅,邯郸路608弄50号,31.307273338654,121.52043424549
19,肯德基杨浦大润发店餐厅,黄兴路1616号(近国权路),31.293739176647,121.5280908474
20,肯德基杨浦中原餐厅,中原路188号,31.323764034499,121.53883616232
21,肯德基杨浦源泉餐厅,控江路1100号,31.285939150386,121.53562747073
22,肯德基杨浦国顺餐厅,国顺东路188号,31.306824687739,121.54253218105
23,肯德基杨浦长海餐厅,长海路361号,31.315743718978,121.53315654129
24,肯德基杨浦凤城店(暂停营业)餐厅,控江路1498号(近凤城路),31.281766824552,121.52788666705
25,肯德基杨浦双辽路店餐厅,双辽路768号,31.279694504809,121.5219719442
26,肯德基杨浦嫩江餐厅,中原路102号,31.319635635967,121.5389714085
27,肯德基杨浦沪东餐厅,平凉路1500号,31.27124419719,121.54569125203
28,肯德基杨浦政民餐厅,政民路300号,31.307639458036,121.51262355813
29,肯德基杨浦怀德餐厅,平凉路675号,31.264003944448,121.53163169284
30,肯德基杨浦周家嘴餐厅,周家嘴路4295号,31.29304896196,121.55993237584
31,肯德基杨浦邯郸餐厅,邯郸路585号地下一层B-2、B-8-1、B-8-3,31.304716997657,121.51995446141
32,肯德基杨浦控江餐厅,双辽路768号,31.279694504809,121.5219719442
33,肯德基普陀长寿餐厅,长寿路401号,31.24576440803,121.44353442232
34,肯德基普陀万航店餐厅,长寿路1188号(近万航渡路),31.235904418215,121.43357508879
35,肯德基普陀金沙江餐厅,金沙江路1685号,31.236571831829,121.38511274978
36,肯德基普陀真北家乐福店餐厅,桃浦路328号家乐福(近大渡河路),31.265870987911,121.40070908873
37,肯德基普陀武宁餐厅,武宁路197号,31.245084797749,121.42907673412
38,肯德基普陀中环餐厅,真光路1288号,31.250968716155,121.39098474563
39,肯德基普陀长风餐厅,金沙江路588号,31.238212161162,121.4082984929
40,肯德基普陀志丹路店餐厅,志丹路135号,31.268322010497,121.43719490696
41,肯德基普陀宜川路店(暂停营业)餐厅,宜川路93号(近华阴路),31.265924254154,121.44670265602
42,肯德基普陀兰溪路店餐厅,021-62604031,31.249161710015,121.48789948569
43,肯德基普陀沪太餐厅,中山北路1015号,31.264954128501,121.45659058594
44,肯德基普陀万里餐厅,新村路1500号,31.273860806929,121.41706144877
45,肯德基普陀铜川餐厅,铜川路1688号,31.258245742993,121.39541128168
46,肯德基普陀桃浦餐厅,雪松路368号,31.290924401566,121.3602295066
47,肯德基普陀管弄餐厅,管弄路290号,31.260628471391,121.43111741475
48,肯德基普陀长征餐厅,杨柳青路768号,31.24955782634,121.40572495181
49,肯德基普陀曹杨路店餐厅,普陀区武宁路225号沪西工人文化宫内,31.24143547786,121.44840755005
50,肯德基普陀景畔餐厅,大渡河路196号,31.229045146432,121.40144490784
51,肯德基普陀国盛时尚店餐厅,普陀区大渡河路588号国盛时尚购物中心1楼,31.230698867481,121.40243191922
52,肯德基普陀芳汇餐厅,长寿路1118号,31.23684233516,121.43381542055
53,肯德基普陀杨柳青路店餐厅,普陀区杨柳青路768号乐天玛特超市旁,31.24955782634,121.40572495181
54,肯德基普陀恒达休闲广场店餐厅,普陀区白丽路237-257号,31.286524999726,121.35492537278
55,肯德基普陀红柳路店餐厅,普陀区红柳路,31.29911070218,121.36150519564
56,肯德基普陀真北餐厅,桃浦路328号,31.265870987911,121.40070908873
57,肯德基普陀沪西餐厅,曹杨路520号,31.244208424487,121.42539548263
58,肯德基普陀嘉华餐厅,大华路352号106-107室,31.275979276096,121.42079931776
59,肯德基普陀云岭餐厅,大渡河路588号,31.230698867481,121.40243191922
60,肯德基普陀恒达广场餐厅,白丽路263-267号,31.287188338428,121.35474418187
61,肯德基普陀曹杨餐厅,兰溪路137号,31.245068154303,121.41197935272
62,肯德基普陀甘泉餐厅,志丹路135号,31.268322010497,121.43719490696
63,肯德基金山卫清路店餐厅,卫清路858号,30.733902892808,121.3419039655
64,肯德基金山朱泾餐厅,朱泾镇公园路246弄51号,30.9016246949,121.16823234963
65,肯德基金山蒙山北路店餐厅,金山区山阳镇蒙山北路399号1楼,30.751983876857,121.34345082513
66,肯德基金山金山餐厅,卫零路136号,30.721831220581,121.34580689094
67,肯德基金山金山百联店餐厅,金山区卫清西路168弄99号百联金山购物中心1楼,30.738359949065,121.35401971015
68,肯德基金山卫清西路店餐厅,金山区卫清西路477号乐购1楼,30.735003250299,121.35016472727
69,肯德基金山坂桥餐厅,卫清西路18号一层B103及B104,30.737126642612,121.35782394954
70,肯德基金山蒙山餐厅,卫清路477号,30.734773707464,121.34940512283
71,肯德基金山龙翔餐厅,蒙山北路399号,30.751983876857,121.34345082513
72,肯德基金山亭枫餐厅,朱泾镇沈浦泾路28号,30.898403968721,121.18132720899
73,肯德基金山枫泾餐厅,枫泾镇白牛路280号,30.898594744091,121.0301280921
74,肯德基金山石化餐厅,卫清路858号,30.733902892808,121.3419039655
75,肯德基闸北大宁餐厅,广中西路758号,31.2812043372,121.44282422198
76,肯德基闸北彭浦店餐厅,共和新路4460号(近汾西路),31.318917627398,121.45455312754
77,肯德基闸北新客站餐厅,秣陵路303号,31.254632781592,121.46126416948
78,肯德基闸北延长餐厅,延长中路300号,31.276917112443,121.46049026491
79,肯德基闸北广中西路店餐厅,广中西路758号(近运城路),31.2812043372,121.44282422198
80,肯德基闸北洛川餐厅,洛川东路221号,31.277454079465,121.47015974848
81,肯德基闸北恒丰餐厅,天目西路311号,31.252981830506,121.4601999658
82,肯德基闸北虬江餐厅,宝山路111号,31.25798433492,121.48450571173
83,肯德基闸北名品商厦店餐厅,秣陵路228号名品商厦B1楼01铺位(近火车站南广场),31.253211432549,121.46078072032
84,肯德基闸北临汾餐厅,临汾路700号,31.317115096685,121.46012531662
85,肯德基闸北保德餐厅,保德路88号,31.325551849785,121.47374605896
86,肯德基闸北环龙店餐厅,梅园路360号环龙商厦(近火车站南广场),31.253601793315,121.46247070247
87,肯德基闸北天目西路店餐厅,天目西路235号(近民立路),31.252516218985,121.46312646549
88,肯德基闸北共和餐厅,共和新路3318号,31.303790081074,121.45514591934
89,肯德基闸北王子百货店餐厅,闸北区共和新路567号王子百货2楼,31.26008047895,121.47044990116
90,肯德基闸北火车站南候车大厅店餐厅,闸北区秣陵路303号上海火车站内南候车大厅1楼,31.256071132375,121.46209584497
91,肯德基闸北芷江餐厅,芷江西路398号,31.262931663629,121.46513594718
92,肯德基闸北北广场餐厅,秣陵路303号上海站北广场北立面1F大厅入口西侧位置,31.254632781592,121.46126416948
93,肯德基闸北中华新餐厅,中华新路567号,31.259912247482,121.47057767165
94,肯德基闸北中兴餐厅,秣陵路303号上海站北广场北立面1F大厅入口西侧位置,31.254632781592,121.46126416948
95,肯德基闸北中亚餐厅,天目西路235号,31.252516218985,121.46312646549
96,肯德基闸北朋普餐厅,共和新路4460号,31.318917627398,121.45455312754
97,肯德基闸北共和新餐厅,共和新路1968号,31.28101406219,121.45903242376
98,肯德基奉贤南奉餐厅,南奉公路8889号,31.061370747489,121.77151547559
99,肯德基奉贤南亭公路店餐厅,南亭公路601号,30.912289454816,121.45156471394
100,肯德基奉贤解放中路店餐厅,解放中路35号,30.922701317637,121.47398859606
101,肯德基奉贤南桥百联店餐厅,奉贤区南桥镇百齐路588号百联南桥购物中心内,30.921796017247,121.49028668498
102,肯德基奉贤百齐餐厅,南桥镇百齐路228、288号1层,30.918192808849,121.49128286357
103,肯德基奉贤西渡餐厅,西渡沪杭公路238弄（近西闸路）连城商业广场1号,30.99553712094,121.43837455098
104,肯德基奉贤奉城餐厅,奉城镇城大路151号,30.913643209303,121.65348880509
105,肯德基奉贤南桥餐厅,解放中路400号,30.921463409217,121.46514235289
106,肯德基奉贤环城餐厅,南桥环城东路1468号,30.877145523883,121.48638488691
107,肯德基奉贤阳光小区餐厅,南亭公路601号,30.912289454816,121.45156471394
108,肯德基虹口瑞虹餐厅,临平路123号,31.266505843318,121.50541272146
109,肯德基虹口玉田餐厅,曲阳路566号,31.285390326291,121.49762711479
110,肯德基虹口通州餐厅,通州路300号,31.264217019901,121.50183232632
111,肯德基虹口永安餐厅,四川北路1818号,31.266063153868,121.49026032241
112,肯德基虹口逸仙餐厅,逸仙路580号,31.310223724687,121.49117100926
113,肯德基虹口杨树浦店餐厅,杨树浦路61号(近浦江海关),31.256954709305,121.51836504456
114,肯德基虹口七浦路店餐厅,七浦路133号兴旺国际服饰城1楼(近河南北路),31.249817586802,121.48908048795
115,肯德基虹口新港路店餐厅,新港路245号卜蜂莲花内(近四平路),31.275363948985,121.50515809047
116,肯德基虹口盛邦国际店餐厅,四川北路1318号盛邦国际B1楼(近武进路),31.2574858636,121.49130945341
117,肯德基虹口车站南路店餐厅,车站南路370弄(近水电路),31.300601035046,121.48118319581
118,肯德基虹口同心店餐厅,同心路1号华联吉买盛内(近东江湾路),31.272692674237,121.48631209003
119,肯德基虹口新市店餐厅,新市北路1422号(近丰镇路),31.309817776735,121.48752668891
120,肯德基虹口河南北路店餐厅,河南北路117号,31.250431473426,121.48855192499
121,肯德基虹口金浦餐厅,七浦路258号一，二层,31.251464590596,121.48701699036
122,肯德基虹口虹口龙之梦店餐厅,虹口区西江湾路388号虹口凯德龙之梦购物中心B2楼,31.276617733437,121.48518068951
123,肯德基虹口四川北路店餐厅,虹口区四川北路850号,31.254293217174,121.49178187228
124,肯德基虹口东江湾餐厅,东江湾路444号,31.276657789325,121.48636576827
125,肯德基虹口赤峰餐厅,中山北一路422号（广纪路65号对面）赤峰路轻轨站1楼,31.287350517928,121.48870967103
126,肯德基虹口东华店餐厅,虹口区四川北路848号,31.254193891391,121.49181007907
127,肯德基虹口四平路二店餐厅,虹口区四平路,31.28230655771,121.50988741207
128,肯德基虹口联富餐厅,河南北路99号,31.250509845095,121.48852883225
129,肯德基虹口新福海餐厅,四川北路1318号地下一层103单元,31.257469271289,121.4912773839
130,肯德基虹口金运餐厅,金沙江西路1051弄1063室,31.247144084019,121.33732696052
131,肯德基虹口洲海餐厅,外高桥保税区台中南路2号新贸楼1层,31.321646562121,121.6126560058
132,肯德基虹口凉城联华餐厅,车站南路370弄,31.300601035046,121.48118319581
133,肯德基虹口天宝餐厅,新港路229-245号1楼11号,31.275153553839,121.50552440329
134,肯德基黄浦和平餐厅,西藏中路290号,31.238699706707,121.48251899501
135,肯德基黄浦新世界餐厅,南京西路2-68号,31.240714087406,121.4802066668
136,肯德基黄浦海潮店餐厅,陆家浜路436号(近大兴街),31.216909173313,121.50517417014
137,肯德基黄浦丽园餐厅,西藏南路1118号,31.216248203094,121.49285059892
138,肯德基黄浦福州餐厅,福州路556号,31.23898924235,121.48673168853
139,肯德基黄浦肇周餐厅,西藏南路666号,31.223006356312,121.49012621348
140,肯德基黄浦迪美餐厅,人民大道221号地下一层,31.234802119283,121.47978419372
141,肯德基黄浦曼克顿餐厅,南京东路463-477号,31.241908486763,121.48805138287
142,肯德基黄浦外滩店餐厅,中山东二路105号,31.238675160589,121.49922487241
143,肯德基黄浦南洋餐厅,南京东路558号,31.241706874686,121.48629416075
144,肯德基黄浦豫园餐厅,福佑路234号,31.233407586848,121.497893342
145,肯德基黄浦三阳餐厅,南京东路626-636号一层和二层,31.241586355206,121.48513919768
146,肯德基黄浦中华餐厅,中华路1405号,31.223413125525,121.49257504281
147,肯德基黄浦方浜中路店餐厅,方浜中路265(近城隍庙豫龙坊),31.231052437059,121.49851420316
148,肯德基黄浦南京东路店餐厅,黄浦区南京东路380号,31.242718159021,121.48937225758
149,肯德基黄浦市百餐厅,西藏中路462号-500号一百商城（新楼）,31.241541975646,121.48090979208
150,肯德基黄浦南浦大桥店餐厅,黄浦区南浦大桥,31.211534235992,121.51055793515
151,肯德基黄浦豫园路店餐厅,黄浦区豫园路11号,31.231970100472,121.49882502046
152,肯德基黄浦天潼餐厅,天潼路538号,31.249927318135,121.48936247503
153,肯德基黄浦豫安阁餐厅,方浜中路245号地下一层,31.231136672124,121.49928570746
154,肯德基宝山安信餐厅,牡丹江路1255号安信商业广场F区,31.400447775807,121.4949036582
155,肯德基宝山大华餐厅,华灵路1051号,31.286221400414,121.42790018656
156,肯德基宝山共康餐厅,共江路1168号,31.333921034696,121.45193739125
157,肯德基宝山牡丹江路店餐厅,牡丹江路1688号(近友谊路),31.40926316388,121.48904914158
158,肯德基宝山长江西路店餐厅,长江西路2211号易买得1楼(近一号线通河新村站),31.337403663838,121.44712467995
159,肯德基宝山聚丰餐厅,聚丰园路205号,31.320400994883,121.38839526232
160,肯德基宝山长江南路餐厅,长江南路5号,31.337307558886,121.49764493897
161,肯德基宝山长临餐厅,共康路555号,31.328027475649,121.44261957002
162,肯德基宝山吴淞餐厅,水产路1234号,31.280122440463,121.36802789166
163,肯德基宝山虎城餐厅,大华路518号,31.277938845405,121.42079764332
164,肯德基宝山蕴川餐厅,蕴川路1557号,31.37292723659,121.4390489854
165,肯德基宝山龙镇路店餐厅,龙镇路200弄2号(近德都路),31.424542250717,121.43655041229
166,肯德基宝山牡丹江餐厅,同泰北路401号,31.387162853764,121.50317112852
167,肯德基宝山水产西路店餐厅,宝山区水产西路999号,31.36038357883,121.41776271142
168,肯德基宝山宝山万达餐厅,128纪念路988弄1号401-2,31.330200737556,121.45249552133
169,肯德基宝山美兰餐厅,罗芬路1088号,31.409036063247,121.35696427297
170,肯德基宝山嘉年华店餐厅,宝山区大华路520号虎城嘉年华1楼,31.277160148536,121.41968865364
171,肯德基宝山长江南路地铁站店餐厅,宝山区长江南路地铁站1楼,31.340838176528,121.49074716716
172,肯德基宝山沪太路店餐厅,宝山区沪太路,31.288795980563,121.42945269564
173,肯德基宝山顾村餐厅,上海水产西路957号,31.360826595376,121.41870795025
174,肯德基宝山宝山餐厅,牡丹江路1688号,31.40926316388,121.48904914158
175,肯德基宝山月浦餐厅,龙镇路200弄2-5号,31.424542250717,121.43655041229
176,肯德基宝山淞南餐厅,长江南路553号,31.342363161539,121.488589025
177,肯德基宝山宝翔餐厅,丰翔路3168号,31.30517395757,121.33197274983
178,肯德基宝山宝宸餐厅,长江西路2211号1层1FA-03号商铺,31.337636966621,121.44659678533
179,肯德基宝山刘行餐厅,菊盛路912—916号,31.367319355978,121.37552460687
180,肯德基闵行南方商城餐厅,沪闵路7388号5层,31.137225317645,121.40747118945
181,肯德基闵行吴中餐厅,吴中路1109号一层A商铺,31.182404252059,121.3928083678
182,肯德基闵行龙茗餐厅,龙茗路1048号（近顾戴路）,31.144320162804,121.39357858662
183,肯德基闵行闵行餐厅,江川路279号,31.009842232311,121.42625901204
184,肯德基闵行莘松餐厅,莘松路855号,31.105380335169,121.37058904781
185,肯德基闵行春申餐厅,春申路2801号,31.113500954116,121.41527531469
186,肯德基闵行华漕大润发店餐厅,华漕镇繁兴路399弄2号大润发(近保乐路),31.216470876774,121.29957500768
187,肯德基闵行东川餐厅,东川路2088号－2098号,31.021554766966,121.42679970931
188,肯德基闵行贵都餐厅,都路3366号,31.249161710015,121.48789948569
189,肯德基闵行七莘餐厅,七莘路695号,31.124641569631,121.37861258057
190,肯德基闵行龙柏餐厅,虹淞路505号,31.094675526091,121.24122730791
191,肯德基闵行七莘路一店餐厅,七莘路3157号(近新龙路),31.164086039622,121.35283085875
192,肯德基闵行七莘路二店餐厅,七莘路3655号(近沪星路),31.171243631694,121.3484131007
193,肯德基闵行莘庄餐厅,莘东路255号,31.114265999926,121.38334128413
194,肯德基闵行莘建餐厅,水清南路20号,31.118261497597,121.39128974191
195,肯德基闵行颛桥餐厅,颛兴路89、93、113号一至二层,31.072940325034,121.40565818615
196,肯德基闵行合川餐厅,虹中路535号,31.193539322047,121.3843354604
197,肯德基闵行汇宝餐厅,漕宝路3509号,31.162019589714,121.35630470922
198,肯德基闵行吴泾餐厅,宝秀路667号,31.048207917528,121.47045347911
199,肯德基闵行罗秀餐厅,罗秀路1825号,31.132752842838,121.41335776929
200,肯德基闵行水清路店餐厅,水清路1390号大润发超市内(近顾戴路),31.138170074861,121.37985504579
201,肯德基闵行虹桥火车站店餐厅,闵行区虹桥火车站B1楼,31.192377059256,121.33414012477
202,肯德基闵行莘庄龙之梦店餐厅,闵行区沪闵路6088号莘庄凯德龙之梦购物中心,31.114571681309,121.38519241152
203,肯德基闵行仲盛店餐厅,闵行区都市路5001号仲盛世界商城B1楼,31.114131121676,121.39447482423
204,肯德基闵行虹桥机场餐厅,虹桥路2550号,31.193248755384,121.35479976452
205,肯德基闵行乐购餐厅,七莘路3155号,31.163519258675,121.35312839256
206,肯德基闵行漕宝路店餐厅,闵行区漕宝路1574号易买得购物中心1楼,31.16287248962,121.38541809191
207,肯德基闵行漕宝店餐厅,闵行区虹莘路2988号漕宝购物中心1-2楼,31.162834047465,121.38446771972
208,肯德基闵行华夏东路店餐厅,闵行区华夏东路2255号卜峰莲花内,31.093537540382,121.42502428093
209,肯德基闵行江文餐厅,江文路589号一层A商铺,31.06676373401,121.54112106346
210,肯德基闵行红松路店餐厅,闵行区红松路114号,31.188163175869,121.380479484
211,肯德基闵行绿地金御店餐厅,闵行区新南路1号绿地金御广场1楼,31.094467789072,121.34560794951
212,肯德基闵行金汇餐厅,华夏东路2255号,31.206573314643,121.7010427903
213,肯德基闵行吴中路二店餐厅,闵行区吴中路781号,31.185588022193,121.40010888496
214,肯德基闵行梅陇西路店餐厅,闵行区梅陇西路1566号,31.125729972762,121.40030706647
215,肯德基闵行保乐餐厅,繁兴路399弄2号,31.216470876774,121.29957500768
216,肯德基闵行名都餐厅,莘朱路168号B1,31.113310853433,121.3915784079
217,肯德基闵行高铁精选餐厅,虹桥火车站3F-JC-C10,31.199821879112,121.32713998566
218,肯德基闵行莘龙餐厅,沪闵路6088号,31.114571681309,121.38519241152
219,肯德基闵行明兴餐厅,新桥镇明兴路口家乐福新南路购物中心101号商铺,31.066229606075,121.32193250952
220,肯德基闵行龙城餐厅,七莘路3655号,31.171243631694,121.3484131007
221,肯德基闵行徐泾餐厅,育才路257-267号,31.249161710015,121.48789948569
222,肯德基闵行港澳餐厅,水清路1390号,31.138170074861,121.37985504579
223,肯德基闵行虹桥连廊餐厅,申昆路1500号3层CF322a,31.189410018855,121.33207051871
224,肯德基青浦嘉松餐厅,沪青平公路2888号C区213号,31.160247724089,121.23372043825
225,肯德基青浦育才路店餐厅,育才路259号,31.249161710015,121.48789948569
226,肯德基青浦青浦餐厅,青浦镇公园路461号,31.154057395213,121.12353547915
227,肯德基青浦盈港餐厅,青浦镇盈港路555号,31.165389341587,121.11946798953
228,肯德基青浦新风路店餐厅,新风路148号,31.115125328274,121.06350580651
229,肯德基青浦城中西路店餐厅,城中西路1号,31.152280493061,121.11796085207
230,肯德基青浦徐泾家乐福店餐厅,青浦区沪青平公路1829号家乐福徐泾店1楼,31.174203085624,121.28999200847
231,肯德基青浦新府北路店餐厅,青浦区华新镇新府北路,31.251624723894,121.23379002369
232,肯德基青浦华强街店餐厅,青浦区华强街118号,31.249890861336,121.24006689482
233,肯德基青浦华新餐厅,华新镇华强街239号B02商铺中1、2层,31.248848434224,121.2438697634
234,肯德基青浦朱家角餐厅,青浦新风路148号,31.115125328274,121.06350580651
235,肯德基青浦华徐餐厅,徐泾镇沪青平公路1829号,31.174203085624,121.28999200847
236,肯德基青浦绅富店餐厅,公园东路1289弄123、124号,31.15876556203,121.14444058087
237,肯德基松江欢乐谷店餐厅,佘山国家度假区林荫大道18号欢乐谷内,31.10248070904,121.22218115511
238,肯德基松江九亭餐厅,九亭镇九亭大街370号,31.136659975177,121.33832146743
239,肯德基松江松江新城餐厅,新松江路935号,31.044781956972,121.22426863117
240,肯德基松江文汇路店餐厅,文汇路818号(近龙源路),31.055894840846,121.20909841872
241,肯德基松江新松江路店餐厅,新松江路935号(人民北路口),31.044781956972,121.22426863117
242,肯德基松江荣乐路一店餐厅,荣乐中路8号,31.023362860686,121.24752302638
243,肯德基松江荣乐餐厅,荣乐中路552号,31.023545648213,121.22625530208
244,肯德基松江中山中路店餐厅,中山中路99号,31.012545561992,121.24063230717
245,肯德基松江泗泾镇店餐厅,泗泾镇江川北路134弄146号,31.118372978349,121.28078886223
246,肯德基松江金矿镇餐厅,佘山林湖路888号-1金矿镇区1号,31.10248070904,121.22218115511
247,肯德基松江新南路家乐福店餐厅,松江区新南路989号家乐福1楼,31.094679898341,121.34627520712
248,肯德基松江涞坊路店餐厅,松江区沪亭北路,31.158559311922,121.31980050177
249,肯德基松江三湘店餐厅,松江区梅家浜路1500弄17号三湘财富广场,31.059379632769,121.23676229564
250,肯德基松江大润发餐厅,黄兴路1616号,31.293739176647,121.5280908474
251,肯德基松江新桥餐厅,新桥镇新南街377号,31.068406073758,121.32113468667
252,肯德基松江思贤餐厅,思贤路778--180号,31.035090819354,121.23737539185
253,肯德基松江叶榭餐厅,叶榭镇求仁路149号1层,30.948489043354,121.32514177153
254,肯德基松江松汇中路店餐厅,松江区松汇中路568号沃尔玛2楼,31.011533340542,121.24076368974
255,肯德基松江阳光港餐厅,佘山林湖路888号-1阳光港区9号,31.10248070904,121.22218115511
256,肯德基松江谷阳餐厅,松汇中路568号上海鹿都商业广场,31.011533340542,121.24076368974
257,肯德基松江上海滩餐厅,佘山林湖路888号-1上海滩区5号,31.10248070904,121.22218115511
258,肯德基松江泗宝餐厅,泗泾镇横港路61号,31.122142534154,121.26850115316
259,肯德基松江湘城餐厅,梅家浜路1500弄101号,31.060223674779,121.23655143998
260,肯德基松江亭坊餐厅,九亭镇涞坊路589号,31.158079990547,121.31989074913
261,肯德基松江车墩餐厅,车墩镇影维路258弄2号一、二层,31.020728204629,121.32265438334
262,肯德基松江沪松DT餐厅,松江荣乐东路605号2层,31.021918858575,121.26897910918
263,肯德基松江松江餐厅,松江县中山中路99号,31.012545561992,121.24063230717
264,肯德基松江方舟餐厅,荣乐中路8号,31.023362860686,121.24752302638
265,肯德基松江大学城餐厅,文汇路818号,31.055894840846,121.20909841872
266,肯德基松江松江万达店餐厅,广富林路658弄松江万达广场2002号商铺,31.063063688507,121.24972133807
267,肯德基松江江川店餐厅,泗泾镇江川北路263、265号,31.1205567779,121.27985381243
268,肯德基徐汇港汇店餐厅,虹桥路1号港汇广场5楼536商铺,31.20118819608,121.44369818342
269,肯德基徐汇美罗店餐厅,肇嘉浜路1111号美罗城(近漕溪北路),31.199482409804,121.44620959679
270,肯德基徐汇上海南站一店餐厅,石龙路750-3号银泰购物中心南2-A18(近上海南站),31.157615855847,121.43675741871
271,肯德基徐汇上海南站二店餐厅,上海南站换乘通道内,31.159523112396,121.43577423051
272,肯德基徐汇上海南站三店餐厅,地铁一号线上海南站站出站口,31.159523112396,121.43577423051
273,肯德基徐汇田林餐厅,田林路1号,31.177661185172,121.42990002393
274,肯德基徐汇徐家汇太平洋店餐厅,衡山路932号太平洋百货B1楼(近华山路),31.201683638161,121.44475710595
275,肯德基徐汇钦州餐厅,桂林路39号,31.164203714238,121.42678610268
276,肯德基徐汇永隆餐厅,淮海中路1298号,31.219801442396,121.45716332577
277,肯德基徐汇南丹餐厅,天钥桥路333号,31.194738614091,121.44873606397
278,肯德基徐汇桂林餐厅,田林路103号,31.176465337337,121.42400457423
279,肯德基徐汇龙漕店餐厅,轻轨3号线龙漕路地铁站1楼(近龙吴路),31.176088741043,121.44735724047
280,肯德基徐汇宜山路站店餐厅,地铁三号线宜山路站1楼,31.192545568947,121.4341881823
281,肯德基徐汇海光餐厅,大木桥路370号,31.202757061274,121.46863828844
282,肯德基徐汇汇金餐厅,肇嘉浜路998号,31.201792546033,121.4473619404
283,肯德基徐汇辛耕餐厅,天钥桥路123号,31.198830512935,121.44827943372
284,肯德基徐汇船厂路店餐厅,船厂路178号(近中山南二路号,31.19117485506,121.46647768403
285,肯德基徐汇凌云路店餐厅,凌云路402号(近梅陇路),31.143609448301,121.42566926819
286,肯德基徐汇虹梅地铁餐厅,沪闵路8073号,31.148558670344,121.42067711048
287,肯德基徐汇龙华路店(暂停营业)餐厅,龙华路2838号(近龙华寺),31.180147211647,121.45918980629
288,肯德基徐汇体育场餐厅,天钥桥路666号,31.186687702257,121.44850042226
289,肯德基徐汇宜山路店餐厅,宜山路586号(近钦州路号,31.185433532339,121.4311546046
290,肯德基徐汇龙临路店餐厅,龙临路157号(罗香路口),31.140641026769,121.44337349358
291,肯德基徐汇东安路店餐厅,徐汇区四号线七号线东安路站台内,31.196149288382,121.46175525783
292,肯德基徐汇番禺路店餐厅,徐汇区番禺路868号,31.203528276102,121.43482034684
293,肯德基徐汇港汇二店餐厅,徐汇区虹桥路1号港汇恒隆广场1楼B108号商铺,31.201478033954,121.44327277198
294,肯德基徐汇漕溪路站店餐厅,徐汇区地铁三号线漕溪路站吉美臣商场1楼,31.183410624706,121.44442688884
295,肯德基徐汇石龙路店餐厅,徐汇区石龙路728号,31.158480439067,121.43992036947
296,肯德基徐汇漕东餐厅,轻轨3号线漕溪站1楼,31.249161710015,121.48789948569
297,肯德基徐汇光启城店餐厅,徐汇区宜山路425号光启城购物中心B1楼,31.189910045845,121.43525728623
298,肯德基徐汇光大餐厅,漕宝路78号,31.173903294199,121.43473419575
299,肯德基徐汇中金餐厅,漕溪北路339号地下一层,31.197290640454,121.44480789345
300,肯德基徐汇新宜街餐厅,宜山路700号84幢A1号楼商铺101-102,31.181712142543,121.42336431955
301,肯德基徐汇华泾餐厅,华泾路509号7栋101商铺,31.124741153377,121.45996657974
302,肯德基徐汇天钥桥路店餐厅,徐汇区天钥桥路214号哈尼美食广场,31.197399738768,121.44849823309
303,肯德基徐汇沪闵路店餐厅,徐汇区沪闵路9001-3号上海南站北广场内,31.159633323324,121.43462493844
304,肯德基徐汇动力南广场餐厅,石龙路750-3号上海南站地下商场南馆,31.157615855847,121.43675741871
305,肯德基徐汇柳州餐厅,沪闵路9001号上海南站站厅层,31.160647200936,121.43406217429
306,肯德基徐汇新港汇餐厅,虹桥路1号五层536铺位,31.201363099172,121.44450090922
307,肯德基徐汇柳州2餐厅,南站站层（商铺号C102）,31.249161710015,121.48789948569
308,肯德基徐汇东安路站餐厅,东安路270号轨道交通七号线东安路站站厅层,31.197790300901,121.46059369311
309,肯德基徐汇新凌云餐厅,凌云路365号1F，2F,31.14259375232,121.4259092541
310,肯德基徐汇南站精选餐厅,沪闵路9001号上海南站候车大厅,31.160647200936,121.43406217429
311,肯德基徐汇太平洋精选餐厅,衡山路932号地下一层,31.201114837071,121.44501339251
312,肯德基徐汇港汇精选餐厅,虹桥路1号港汇广场B108M,31.20118819608,121.44369818342
313,肯德基徐汇动力南精选餐厅,沪闵路9001号上海南站（1F三角地A-1）一层,31.160647200936,121.43406217429
314,肯德基徐汇石龙餐厅,柳州路36号1幢,31.159695512947,121.4398145392
315,肯德基徐汇虹许餐厅,吴中路729、769号苏宁电器一层二层,31.185461461165,121.40028348415
316,肯德基徐汇罗香餐厅,罗香路235号,31.140910750853,121.44329726967
317,肯德基徐汇凯旋餐厅,宜山路站一层宜山-3-101号,31.192545568947,121.4341881823
318,肯德基徐汇虹凯餐厅,凯旋路1558号（轨道交通三号线虹桥路站）,31.203240198122,121.42761533928
319,肯德基徐汇新美罗餐厅,肇嘉浜路1111号,31.199834520052,121.44632195415
320,肯德基嘉定博乐餐厅,博乐路99号,31.389001405459,121.26070131374
321,肯德基嘉定华江路店餐厅,华江路25号,31.263460895312,121.35223195373
322,肯德基嘉定清河路店餐厅,清河路6号,31.391342988123,121.25705203744
323,肯德基嘉定城中路店餐厅,城中路2号,31.379486900759,121.26036530436
324,肯德基嘉定江桥餐厅,华江路25号,31.263460895312,121.35223195373
325,肯德基嘉定丰庄餐厅,曹安公路1685号,31.258086066635,121.37298854849
326,肯德基嘉定安亭餐厅,安亭镇昌吉路188号,31.302660273848,121.15943515394
327,肯德基嘉定昌吉路店餐厅,昌吉路188号(近墨玉路),31.301526608504,121.16961466664
328,肯德基嘉定丰翔路店餐厅,丰翔路3168号家乐福超市1楼,31.273514049202,121.41701895892
329,肯德基嘉定马陆弘基餐厅,马陆镇沪宜公路2398/2400号,31.342474652942,121.28843847263
330,肯德基嘉定曹安餐厅,曹安公路1588号,31.258920745223,121.3739749021
331,肯德基嘉定安亭新镇餐厅,安亭镇墨玉南路1055号嘉亭荟生活广场110室,31.293882466965,121.16882751925
332,肯德基嘉定嘉定城北餐厅,平城路1188号,31.397201203309,121.2432717713
333,肯德基嘉定黄渡DT餐厅,曹安公路4671号,31.282909385889,121.22452232882
334,肯德基嘉定嘉定餐厅,清河路8号,31.391459823578,121.25695669219
335,肯德基嘉定城中餐厅,博乐路2号,31.386847247126,121.26199221768
336,肯德基嘉定南翔餐厅,南翔镇解放街160号,31.296604730611,121.31508966999
337,肯德基嘉定汽车城餐厅,安亭镇新源路535弄,31.3017311768,121.16138773985
338,肯德基嘉定清河餐厅,城中路162号,31.390677856717,121.25213255714
339,肯德基嘉定永盛餐厅,宝安公路3718号2幢1层,31.332743736604,121.27514172483
340,肯德基嘉定新江桥餐厅,虞姬墩路506号一、二层，101、102、103、201,31.261917316032,121.34970168851
341,肯德基静安北京西路店餐厅,北京西路1829号(近乌鲁木齐北路),31.230050043268,121.44883038245
342,肯德基静安吴江路店餐厅,吴江路269号经典茂名商城2楼(近茂名北路),31.234986686404,121.46588000364
343,肯德基静安武定餐厅,西康路400号一楼A铺,31.238850644428,121.45529540636
344,肯德基静安梅陇镇店(暂停营业)餐厅,南京西路1038号梅陇镇广场B1楼(近江宁路),31.234800575438,121.46315619941
345,肯德基静安常德路店餐厅,静安区常德路770号,31.239667391757,121.44952825355
346,肯德基静安茂名餐厅,吴江路269号2层,31.235267338875,121.46583985298
347,肯德基静安南广场餐厅,秣陵路303号,31.254632781592,121.46126416948
348,肯德基静安莘漕餐厅,漕宝路1574号一楼1021号,31.162893275151,121.38486787709
349,肯德基静安昌平餐厅,常德路778号102商铺,31.239833066523,121.44960364384
350,肯德基静安秀山餐厅,番愚路872号一层,31.198570401027,121.43256240114
351,肯德基静安百乐餐厅,北京西路1829号,31.230050043268,121.44883038245
352,肯德基浦东新浦东机场一店餐厅,磁悬浮浦东机场站2楼A01,31.155341598993,121.81049994857
353,肯德基浦东新张江高科餐厅,碧波路635号,31.206344333995,121.59147602798
354,肯德基浦东新浦东机场二店餐厅,磁悬浮浦东机场站2楼A07,31.155341598993,121.81049994857
355,肯德基浦东新上海科技馆站店餐厅,地铁二号线上海科技馆站7号出口(近世纪大道),31.224125658093,121.54766379619
356,肯德基浦东新正大精选餐厅,陆家嘴西路168号正大广场8楼,31.242490299307,121.50588177887
357,肯德基浦东新新金桥路店餐厅,新金桥路1088号A幢1-2楼(近金港路),31.258733751304,121.61577004114
358,肯德基浦东新金杨餐厅,金杨路524号,31.255587871866,121.58688512089
359,肯德基浦东新潍坊店餐厅,崂山路585号(近潍坊路),31.231258927601,121.52999129715
360,肯德基浦东新浦三餐厅,浦东南路2551号,31.203825960249,121.51779600844
361,肯德基浦东新八佰伴店餐厅,浦东南路1111号(八佰伴旁),31.234404612049,121.52284105568
362,肯德基浦东新金桥餐厅,"张杨路3611弄1号123,124,216室",31.264410465383,121.58426395165
363,肯德基浦东新龙阳餐厅,龙阳路2000号,31.209394617956,121.5652196323
364,肯德基浦东新乳山餐厅,乳山路136号,31.24183792888,121.5303284312
365,肯德基浦东新巨峰餐厅,巨峰路239号,31.286270339912,121.59939725542
366,肯德基浦东新联洋餐厅,芳甸路193号,31.233838694902,121.56517571863
367,肯德基浦东新长清店餐厅,浦东新区昌里路337号浦东商场B1楼(近历城路),31.179559626894,121.49848727376
368,肯德基浦东新银城餐厅,陆家嘴西路168号正大广场5楼,31.242490299307,121.50588177887
369,肯德基浦东新中融店餐厅,浦东南路1068号中融国际商城1楼(近张杨路),31.234236517865,121.52154569374
370,肯德基浦东新长岛餐厅,长岛路1150号1层,31.266700083579,121.59853110925
371,肯德基浦东新东明路店餐厅,东明路2655号,31.149255063658,121.5326155853
372,肯德基浦东新博山东路店餐厅,博山东路50号,31.253617631988,121.56642824936
373,肯德基浦东新成山餐厅,成山路436号,31.177539913802,121.51216720905
374,肯德基浦东新灵岩南路店餐厅,灵岩南路1026号,31.149410720484,121.50574252804
375,肯德基浦东新高青餐厅,长清路1200弄1号1号商铺,31.155254475522,121.50008592206
376,肯德基浦东新夏碧路店餐厅,夏碧路世纪联华门口(近张扬北路),31.343087699065,121.59292056253
377,肯德基浦东新碧波路店餐厅,碧波路139号(近张江地铁站),31.21370190684,121.59153973351
378,肯德基浦东新上南路店餐厅,浦东新区上南路3521号宝丰综合市场内,31.160679751874,121.51056770512
379,肯德基浦东新台中南路店餐厅,浦东新区台中南路2号新贸楼1楼,31.321521628972,121.61304714868
380,肯德基浦东新丁香餐厅,世纪大道2002号,31.224375760954,121.55030363042
381,肯德基浦东新浦南餐厅,浦东南路800号,31.237963904533,121.52058886812
382,肯德基浦东新五莲餐厅,张扬北路801号,31.277570740839,121.59418474787
383,肯德基浦东新高科中路店餐厅,高科中路2860号家乐福(近外环线),31.20985643268,121.64525826696
384,肯德基浦东新银霄餐厅,银霄路393号百安居龙阳店一层,31.211285504381,121.56563139847
385,肯德基浦东新川沙餐厅,新川路401号,31.199237899549,121.7053818817
386,肯德基浦东新杨高中路店餐厅,浦东新区杨高中路2128号正大生活馆内,31.237454264747,121.56088955899
387,肯德基浦东新川沙家乐福店餐厅,妙境路1118号家乐福1楼(近川沙长途汽车站),31.188279564569,121.6994116265
388,肯德基浦东新灵山路店餐厅,灵山路1785号,31.24748116876,121.57596980705
389,肯德基浦东新金高餐厅,金高路1256号,31.284730767405,121.61453959615
390,肯德基浦东新浦三路二店(暂停营业)餐厅,浦东新区浦三路3058号易买得超市1楼,31.400225103505,121.49425194294
391,肯德基浦东新通园餐厅,张杨北路5537号,31.349690977805,121.58080954835
392,肯德基浦东新沪南公路店餐厅,浦东新区沪南公路2420号1楼,31.159552477294,121.57062647297
393,肯德基浦东新川沙路店餐厅,川沙镇川沙路4839号,31.201164551088,121.70434957236
394,肯德基浦东新杨南店餐厅,长清路1200号1楼(近杨南路),31.155572215408,121.49886632994
395,肯德基浦东新百联东郊店餐厅,浦东新区沪南路2420号百联东郊购物中心1楼126号商铺,31.160143298956,121.57039577554
396,肯德基浦东新三钢里店餐厅,浦东新区上南路1160号三钢里壹号楼1楼,31.179251613303,121.50184163906
397,肯德基浦东新人民餐厅,惠南镇人民东路2635弄152-158号,31.054902928166,121.77507455214
398,肯德基浦东新秀沿路店餐厅,浦东新区秀沿路1163号,31.141620933311,121.58696901903
399,肯德基浦东新上丰餐厅,上丰路1772-1784号一层,31.247528773398,121.68567250545
400,肯德基浦东新芳甸路店餐厅,浦东新区芳甸路185号家乐福内,31.233607175516,121.56568654455
401,肯德基浦东新塘桥餐厅,浦建路15号,31.216598098775,121.52455546366
402,肯德基浦东新正大店餐厅,浦东新区陆家嘴西路168号正大广场5楼,31.242490299307,121.50588177887
403,肯德基浦东新周浦万达店餐厅,浦东新区年家浜路437号万达商业广场1楼108铺,31.30632872273,121.51967120412
404,肯德基浦东新博文餐厅,浦东南路3843号,31.190005888099,121.50946834087
405,肯德基浦东新康沈餐厅,周浦康沈路1645-1649号,31.122040987934,121.58367054181
406,肯德基浦东新高行餐厅,东靖路1881号万嘉商业广场1963/1969号,31.299081478628,121.61738418116
407,肯德基浦东新锦尊餐厅,成山路1957号、锦尊路499弄2号203，204室,31.186042184819,121.5399761183
408,肯德基浦东新南汇欧尚店餐厅,浦东新区人民西路955号欧尚超市1楼,31.054355357114,121.74216935182
409,肯德基浦东新南门大街店餐厅,浦东新区惠南镇南门大街18号,31.047315119454,121.76283373642
410,肯德基浦东新上南路站店餐厅,浦东新区地铁六号线上南路站内,31.140994715006,121.52247761205
411,肯德基浦东新由由餐厅,杨高南路1685号,31.200724720615,121.53336209874
412,肯德基浦东新金谊餐厅,上南路4467弄20号,31.147869823013,121.52045340651
413,肯德基浦东新北门餐厅,北门大街13号,31.053060625155,121.7618356642
414,肯德基浦东新高桥餐厅,大同路409号,31.348592122755,121.58614948234
415,肯德基浦东新合庆餐厅,合庆镇庆南路8号,31.24329762905,121.72556192871
416,肯德基浦东新古棕餐厅,古棕路574号,30.886296671001,121.91888630826
417,肯德基浦东新体育中心店餐厅,浦东新区耀体路701号,31.160734302692,121.48248515135
418,肯德基浦东新山姆店餐厅,浦东新区高科西路2110号沃尔玛山姆会员店内,31.209239577323,121.52488317269
419,肯德基浦东新季景餐厅,外高桥夏碧路261号,31.343266319792,121.59320906322
420,肯德基浦东新白莲泾路店餐厅,浦东新区白莲泾路,31.195262906203,121.50706352941
421,肯德基浦东新康桥餐厅,康桥镇绣沿路1032-1080号,31.15529740191,121.57350417671
422,肯德基浦东新乐园路店餐厅,浦东新区乐园路,31.282752909386,121.61994311669
423,肯德基浦东新浦东机场三店餐厅,浦东新区浦东机场北步行道,31.155341598993,121.81049994857
424,肯德基浦东新翔川餐厅,妙镜路1118号E号商铺,31.249161710015,121.48789948569
425,肯德基浦东新惠乐餐厅,人民西路955号,31.054042162598,121.74157065905
426,肯德基浦东新年家浜餐厅,"周浦镇沪南公路3449弄1幢32号236-1,236-2号、240号",31.121017207751,121.57544299622
427,肯德基浦东新磁浮精选餐厅,机场站磁悬浮站第二层编号为A07商铺,31.249161710015,121.48789948569
428,肯德基浦东新联明餐厅,轨道交通六号线上南路站站厅层（1号出口处）,31.140994715006,121.52247761205
429,肯德基浦东新华绣餐厅,花木镇30号街坊,31.211478583044,121.55510747005
430,肯德基浦东新昌里餐厅,上南路1160号,31.179335714233,121.50161939558
431,肯德基浦东新芳甸餐厅,芳甸路1201号新国际博览中心北入口大厅北侧一、二层商铺2号铺位,31.218249086027,121.57051980908
432,肯德基浦东新莲花餐厅,上南路3521号,31.160679751874,121.51056770512
433,肯德基浦东新磁浮餐厅,浦东机场磁悬浮站台2层A01商铺,31.155341598993,121.81049994857
434,肯德基浦东新苗圃餐厅,杨高中路2128号,31.237238043615,121.56162862907
435,肯德基浦东新新源餐厅,川沙路4825号,31.201354598812,121.70434975831
436,肯德基浦东新凌兆餐厅,灵岩南路1026号,31.149410720484,121.50574252804
437,肯德基浦东新永泰餐厅,东明路2655号,31.149255063658,121.5326155853
438,肯德基浦东新御桥餐厅,沪南公路2420号,31.159552477294,121.57062647297
439,肯德基浦东新新里程餐厅,高清路2671号,31.165915425805,121.53108740953
440,肯德基浦东新鼎城餐厅,惠南镇南门大街18号,31.047315119454,121.76283373642
441,肯德基浦东新新八佰伴餐厅,浦东南路1111号,31.234404612049,121.52284105568
442,肯德基浦东新金湘餐厅,新金桥路1088号A幢1、2层,31.258733751304,121.61577004114
443,肯德基浦东新益丰餐厅,高科中路2860号,31.20945632164,121.64455872323
444,肯德基浦东新东方餐厅,东方路1688号103室、202室,31.210254386777,121.53003863785
445,肯德基浦东新江镇餐厅,机场镇晨阳路196号,31.181415169535,121.75721183691
446,肯德基浦东新金海餐厅,金海路2493号,31.273231640753,121.65984024868
447,肯德基浦东新陈行餐厅,浦江镇陈行公路2688号,31.100537729373,121.51083462672
448,肯德基浦东新张江店餐厅,张江路625号一层B座,31.210745579326,121.6222863529
449,肯德基浦东新祝桥店KFC餐厅,祝桥镇百熙路368弄13号,31.117455174935,121.7690649826
450,肯德基浦东新罗山餐厅,博山东路50号,31.253617631988,121.56642824936
451,肯德基长宁汇川餐厅,长宁路1018号,31.224875075167,121.42351239893
452,肯德基长宁天山西路二店餐厅,天山西路541号(近福泉路),31.223811843806,121.36607838905
453,肯德基长宁机场店餐厅,虹桥机场虹桥路2550号,31.193248755384,121.35479976452
454,肯德基长宁哈密餐厅,仙霞西路88号,31.213916581492,121.37758047246
455,肯德基长宁虹桥天都店餐厅,天山路1111号虹桥天都商场(近遵义路),31.216234877763,121.41349473124
456,肯德基长宁舜元弘基店餐厅,江苏路398号舜元弘基天地1楼(近宣化路),31.224400424849,121.43765680937
457,肯德基长宁龙之梦餐厅,长宁路1018号8楼,31.224702555401,121.42337294418
458,肯德基长宁龙之梦二店餐厅,长宁路1018号龙之梦购物中心8楼(近凯旋路),31.224641056929,121.42273587041
459,肯德基长宁仙霞餐厅,仙霞路606号,31.211458508053,121.39664664758
460,肯德基长宁三联店(暂停营业)餐厅,定西路1313号三联商厦2楼(近宣化路),31.223414719353,121.42819217269
461,肯德基长宁泓鑫餐厅,天山路762号泓鑫时尚广场1F,31.21752388932,121.4085093764
462,肯德基长宁天山路店餐厅,长宁区天山路672号,31.218505262311,121.40476865767
463,肯德基长宁宋园餐厅,虹桥路1286号,31.202148035513,121.41986452129
464,肯德基长宁威宁餐厅,天山路352号101和201,31.220720483753,121.39456934035
465,肯德基长宁虹桥路站餐厅,长宁区虹桥路轻轨站1楼,31.198248596211,121.38356537453
466,肯德基长宁天山汇金店餐厅,长宁区天山路900号汇金百货1楼,31.217284898578,121.41134600332
467,肯德基长宁凯旋路站店餐厅,长宁区凯旋路地铁站口,31.214564591974,121.42357402628
468,肯德基长宁天山西路店餐厅,长宁区天山西路201号,31.222518491049,121.37894117534
469,肯德基长宁虹桥机场三店餐厅,长宁区虹桥路2550号虹桥机场候机楼04号,31.193248755384,121.35479976452
470,肯德基长宁江苏餐厅,江苏路398号1、2层,31.22514347997,121.43719526
471,肯德基长宁机场西楼安检餐厅,虹桥机场西航站楼出发层,31.200167126165,121.35555465017
472,肯德基长宁机场西楼到达餐厅,虹桥机场西航站楼到达层,31.200167126165,121.35555465017
473,肯德基长宁新天山餐厅,天山路900号118号商铺1层+B1层,31.217134636216,121.41187335627
474,肯德基长宁虹桥高铁餐厅,虹桥火车站到达城B1-5~B1-8,31.192377059256,121.33414012477
475,肯德基长宁新北新泾餐厅,天山西路181号,31.222314780121,121.37945199048
476,肯德基长宁望春花餐厅,天山西路541号,31.223811843806,121.36607838905
477,肯德基长宁长宁餐厅,长宁路890号,31.225129575976,121.4254836594
